{
  "type": "FeatureCollection",
  "features": [
    {
      "type": "Feature",
      "properties": {
        "norad_id": 54259,
        "name": "EUTELSAT 10B",
        "group": "eutelsat",
        "lat": -0.030633023178162785,
        "lon": 36.38611599010976,
        "alt_km": 35793.83054360026,
        "timestamp": "2025-12-07T20:38:13.749034+00:00",
        "meta_object_name": "EUTELSAT 10B",
        "meta_object_id": "2022-157A",
        "meta_epoch": "2025-12-07T06:50:01.549824",
        "meta_mean_motion": 1.0026421,
        "meta_eccentricity": 0.00016877,
        "meta_inclination": 0.0622,
        "meta_ra_of_asc_node": 101.1456,
        "meta_arg_of_pericenter": 78.294,
        "meta_mean_anomaly": 9.3623,
        "meta_ephemeris_type": 0,
        "meta_classification_type": "U",
        "meta_norad_cat_id": 54259,
        "meta_element_set_no": 999,
        "meta_rev_at_epoch": 1110,
        "meta_bstar": 0,
        "meta_mean_motion_dot": 7.2e-07,
        "meta_mean_motion_ddot": 0,
        "tle_line1": "1 54259U 22157A   25341.28474016  .00000072  00000+0  00000+0 0  9996",
        "tle_line2": "2 54259   0.0622 101.1456 0001687  78.2940   9.3623  1.00264210 11109"
      },
      "geometry": {
        "type": "Point",
        "coordinates": [
          36.38611599010976,
          -0.030633023178162785
        ]
      }
    },
    {
      "type": "Feature",
      "properties": {
        "norad_id": 59346,
        "name": "EUTELSAT 36D",
        "group": "eutelsat",
        "lat": 0.041060540099185944,
        "lon": 62.28937602843849,
        "alt_km": 35787.59575158477,
        "timestamp": "2025-12-07T20:38:13.749051+00:00",
        "meta_object_name": "EUTELSAT 36D",
        "meta_object_id": "2024-059A",
        "meta_epoch": "2025-12-07T06:57:23.344992",
        "meta_mean_motion": 1.00269308,
        "meta_eccentricity": 5.731e-05,
        "meta_inclination": 0.0196,
        "meta_ra_of_asc_node": 353.4406,
        "meta_arg_of_pericenter": 317.2042,
        "meta_mean_anomaly": 265.8781,
        "meta_ephemeris_type": 0,
        "meta_classification_type": "U",
        "meta_norad_cat_id": 59346,
        "meta_element_set_no": 999,
        "meta_rev_at_epoch": 622,
        "meta_bstar": 0,
        "meta_mean_motion_dot": 0,
        "meta_mean_motion_ddot": 0,
        "tle_line1": "1 59346U 24059A   25341.28985353  .00000000  00000+0  00000+0 0  9993",
        "tle_line2": "2 59346   0.0196 353.4406 0000573 317.2042 265.8781  1.00269308  6220"
      },
      "geometry": {
        "type": "Point",
        "coordinates": [
          62.28937602843849,
          0.041060540099185944
        ]
      }
    }
  ]
}